{
  "type": "FeatureCollection",
  "features": [
    {"type":"Feature","properties":{"ADMIN":"United States of America"},"geometry":{"type":"Polygon","coordinates":[[[-124,32],[-124,42],[-122,48],[-111,49],[-103,49],[-95,49],[-88,48],[-83,46],[-75,45],[-67,44],[-69,41],[-74,40],[-77,36],[-81,31],[-90,29],[-98,27],[-106,30],[-114,32],[-124,32]]]}},
    {"type":"Feature","properties":{"ADMIN":"Russia"},"geometry":{"type":"Polygon","coordinates":[[[30,59],[35,64],[44,68],[55,70],[72,72],[92,73],[112,72],[130,69],[146,67],[160,65],[170,62],[160,57],[148,55],[136,54],[122,53],[106,55],[90,57],[74,59],[58,58],[45,57],[30,59]]]}},
    {"type":"Feature","properties":{"ADMIN":"China"},"geometry":{"type":"Polygon","coordinates":[[[74,18],[80,26],[86,31],[94,34],[102,38],[112,42],[122,45],[132,47],[134,42],[128,36],[121,31],[113,24],[106,21],[98,20],[90,22],[84,24],[79,23],[74,18]]]}},
    {"type":"Feature","properties":{"ADMIN":"India"},"geometry":{"type":"Polygon","coordinates":[[[68,24],[73,28],[78,32],[83,34],[88,30],[90,25],[89,21],[86,16],[82,9],[78,8],[74,12],[71,18],[68,24]]]}},
    {"type":"Feature","properties":{"ADMIN":"Pakistan"},"geometry":{"type":"Polygon","coordinates":[[[61,25],[64,29],[68,35],[73,36],[77,33],[75,29],[72,26],[69,24],[65,24],[61,25]]]}},
    {"type":"Feature","properties":{"ADMIN":"France"},"geometry":{"type":"Polygon","coordinates":[[[-5,43],[-1,48],[2,50],[7,49],[8,46],[6,44],[3,43],[1,42],[-2,43],[-5,43]]]}},
    {"type":"Feature","properties":{"ADMIN":"United Kingdom"},"geometry":{"type":"Polygon","coordinates":[[[-7,50],[-6,54],[-5,57],[-2,59],[0,57],[1,54],[-1,52],[-3,50],[-5,50],[-7,50]]]}},
    {"type":"Feature","properties":{"ADMIN":"Israel"},"geometry":{"type":"Polygon","coordinates":[[[34.2,29.5],[34.4,31.0],[34.7,32.2],[35.2,33.0],[35.6,32.5],[35.4,31.3],[35.1,30.2],[34.8,29.6],[34.2,29.5]]]}},
    {"type":"Feature","properties":{"ADMIN":"North Korea"},"geometry":{"type":"Polygon","coordinates":[[[124,38],[126,40],[128,42],[130,43],[130.5,41.5],[129,40],[127.5,39],[126,38.3],[124,38]]]}},
    {"type":"Feature","properties":{"ADMIN":"Iran"},"geometry":{"type":"Polygon","coordinates":[[[44,26],[47,31],[50,35],[54,38],[59,39],[63,37],[62,32],[60,28],[56,26],[51,25],[47,25],[44,26]]]}},
    {"type":"Feature","properties":{"ADMIN":"Germany"},"geometry":{"type":"Polygon","coordinates":[[[6,47],[8,49],[10,51],[13,54],[15,53],[14,50],[13,48],[11,47],[9,47],[7,47],[6,47]]]}},
    {"type":"Feature","properties":{"ADMIN":"Brazil"},"geometry":{"type":"Polygon","coordinates":[[[-74,-33],[-69,-20],[-66,-10],[-60,-3],[-54,2],[-48,4],[-41,0],[-35,-6],[-38,-14],[-42,-20],[-46,-24],[-51,-29],[-58,-31],[-66,-32],[-74,-33]]]} }
  ]
}
